NORAD_CAT_ID,OBJECT_NAME,OBJECT_TYPE,EPOCH,MEAN_MOTION,ECCENTRICITY,INCLINATION,RA_OF_ASC_NODE,ARG_OF_PERICENTER,MEAN_ANOMALY,BSTAR,MEAN_MOTION_DOT,MEAN_MOTION_DDOT,TLE_LINE0,TLE_LINE1,TLE_LINE2,SEMIMAJOR_AXIS,PERIOD,APOGEE,PERIGEE,DECAYED
53256.0,STARLINK-4147,PAYLOAD,2023-10-31 16:48:04,15.08845653,0.0001356,53.2162,94.7615,86.358,273.7567,0.00015867,2.239e-05,0.0,0 STARLINK-4147,1 53256U 22086Q   23304.70005208  .00002239  00000-0  15867-3 0  9999,2 53256  53.2162  94.7615 0001356  86.3580 273.7567 15.08845653 71054,6917.863,95.437,540.666,538.79,0.0
53256.0,STARLINK-4147,PAYLOAD,2023-11-01 10:17:19,15.0883479,0.0001473,53.2162,91.4902,84.9303,275.1858,0.00024259,3.574e-05,0.0,0 STARLINK-4147,1 53256U 22086Q   23305.42869900  .00003574  00000-0  24259-3 0  9994,2 53256  53.2162  91.4902 0001473  84.9303 275.1858 15.08834790 71165,6917.896,95.438,540.78,538.742,0.0
53256.0,STARLINK-4147,PAYLOAD,2023-11-01 13:28:05,15.08849413,0.0001586,53.2164,90.8958,79.889,280.2281,-0.0001463,-2.616e-05,0.0,0 STARLINK-4147,1 53256U 22086Q   23305.56116994 -.00002616  00000-0 -14630-3 0  9997,2 53256  53.2164  90.8958 0001586  79.8890 280.2281 15.08849413 71367,6917.852,95.437,540.814,538.619,0.0
53256.0,STARLINK-4147,PAYLOAD,2023-11-01 19:49:38,15.08843028,0.0001463,53.2167,89.7067,82.7237,277.3922,0.00016061,2.269e-05,0.0,0 STARLINK-4147,1 53256U 22086Q   23305.82613428  .00002269  00000-0  16061-3 0  9992,2 53256  53.2167  89.7067 0001463  82.7237 277.3922 15.08843028 71400,6917.871,95.437,540.748,538.724,0.0
53256.0,STARLINK-4147,PAYLOAD,2023-11-02 13:18:52,15.08842342,0.0001644,53.2171,86.4357,77.8621,282.2555,8.2592e-05,1.027e-05,0.0,0 STARLINK-4147,1 53256U 22086Q   23306.55477549  .00001027  00000-0  82592-4 0  9999,2 53256  53.2171  86.4357 0001644  77.8621 282.2555 15.08842342 71331,6917.873,95.437,540.876,538.601,0.0
53256.0,STARLINK-4147,PAYLOAD,2023-11-02 14:54:15,15.08842625,0.0001573,53.2173,86.1387,79.0556,281.0613,8.1353e-05,1.007e-05,0.0,0 STARLINK-4147,1 53256U 22086Q   23306.62101508  .00001007  00000-0  81353-4 0  9998,2 53256  53.2173  86.1387 0001573  79.0556 281.0613 15.08842625 71522,6917.872,95.437,540.826,538.649,0.0
53256.0,STARLINK-4147,PAYLOAD,2023-11-02 16:29:38,15.08846783,0.0001412,53.2173,85.8424,82.9616,277.1536,0.00012581,1.715e-05,0.0,0 STARLINK-4147,1 53256U 22086Q   23306.68725234  .00001715  00000-0  12581-3 0  9994,2 53256  53.2173  85.8424 0001412  82.9616 277.1536 15.08846783 71532,6917.86,95.437,540.701,538.748,0.0
53256.0,STARLINK-4147,PAYLOAD,2023-11-03 13:09:39,15.08836613,0.0001442,53.2179,81.9769,85.9843,274.1314,-4.2902e-06,-3.56e-06,0.0,0 STARLINK-4147,1 53256U 22086Q   23307.54837833 -.00000356  00000-0 -42902-5 0  9993,2 53256  53.2179  81.9769 0001442  85.9843 274.1314 15.08836613 71661,6917.891,95.438,540.753,538.758,0.0
53256.0,STARLINK-4147,PAYLOAD,2023-11-03 16:20:26,15.08839745,0.0001452,53.2179,81.384,92.8474,267.2684,4.7873e-05,4.74e-06,0.0,0 STARLINK-4147,1 53256U 22086Q   23307.68085682  .00000474  00000-0  47873-4 0  9995,2 53256  53.2179  81.3840 0001452  92.8474 267.2684 15.08839745 71508,6917.881,95.438,540.751,538.742,0.0
53256.0,STARLINK-4147,PAYLOAD,2023-11-04 14:35:50,15.08835238,0.0001606,53.2179,77.2206,79.319,280.7983,-2.5775e-06,-3.29e-06,0.0,0 STARLINK-4147,1 53256U 22086Q   23308.60822193 -.00000329  00000-0 -25775-5 0  9993,2 53256  53.2179  77.2206 0001606  79.3190 280.7983 15.08835238 71824,6917.895,95.438,540.871,538.649,0.0
53256.0,STARLINK-4147,PAYLOAD,2023-11-04 16:11:13,15.08838158,0.0001678,53.2179,76.9213,83.5539,276.5645,3.9736e-06,-2.25e-06,0.0,0 STARLINK-4147,1 53256U 22086Q   23308.67446017 -.00000225  00000-0  39736-5 0  9993,2 53256  53.2179  76.9213 0001678  83.5539 276.5645 15.08838158 71834,6917.886,95.438,540.912,538.59,0.0
53256.0,STARLINK-4147,PAYLOAD,2023-11-05 01:43:32,15.08842079,0.0001691,53.2181,75.1377,86.6142,273.5043,6.8617e-05,8.04e-06,0.0,0 STARLINK-4147,1 53256U 22086Q   23309.07189902  .00000804  00000-0  68617-4 0  9996,2 53256  53.2181  75.1377 0001691  86.6142 273.5043 15.08842079 71711,6917.874,95.437,540.909,538.569,0.0
53256.0,STARLINK-4147,PAYLOAD,2023-11-05 14:26:36,15.08854023,0.0001435,53.2171,72.7591,90.111,270.0046,0.00026425,3.922e-05,0.0,0 STARLINK-4147,1 53256U 22086Q   23309.60181265  .00003922  00000-0  26425-3 0  9993,2 53256  53.2171  72.7591 0001435  90.1110 270.0046 15.08854023 71977,6917.838,95.437,540.695,538.71,0.0
53256.0,STARLINK-4147,PAYLOAD,2023-11-05 16:01:59,15.08860659,0.0001536,53.217,72.4603,78.9046,281.2118,0.0004527,6.928e-05,0.0,0 STARLINK-4147,1 53256U 22086Q   23309.66805064  .00006928  00000-0  45270-3 0  9997,2 53256  53.2170  72.4603 0001536  78.9046 281.2118 15.08860659 71809,6917.817,95.436,540.745,538.62,0.0
53256.0,STARLINK-4147,PAYLOAD,2023-11-06 07:55:50,15.08856775,0.0001635,53.2168,69.4888,92.0513,268.0666,0.00030347,4.547e-05,0.0,0 STARLINK-4147,1 53256U 22086Q   23310.33044648  .00004547  00000-0  30347-3 0  9990,2 53256  53.2168  69.4888 0001635  92.0513 268.0666 15.08856775 71909,6917.829,95.436,540.825,538.563,0.0
53256.0,STARLINK-4147,PAYLOAD,2023-11-06 14:17:25,15.08808516,0.0001592,53.2174,68.3006,57.3868,302.7277,-0.00039069,-6.495e-05,0.0,0 STARLINK-4147,1 53256U 22086Q   23310.59543375 -.00006495  00000-0 -39069-3 0  9995,2 53256  53.2174  68.3006 0001592  57.3868 302.7277 15.08808516 72124,6917.977,95.44,540.943,538.74,0.0
53256.0,STARLINK-4147,PAYLOAD,2023-11-07 10:57:27,15.08816596,0.0001536,53.2164,64.4334,77.1764,282.94,-0.00011235,-2.074e-05,0.0,0 STARLINK-4147,1 53256U 22086Q   23311.45656298 -.00002074  00000-0 -11235-3 0  9994,2 53256  53.2164  64.4334 0001536  77.1764 282.9400 15.08816596 72075,6917.952,95.439,540.88,538.754,0.0
53256.0,STARLINK-4147,PAYLOAD,2023-11-07 14:08:13,15.08821053,0.0001595,53.2173,63.8374,82.8921,277.2252,-9.3419e-06,-4.37e-06,0.0,0 STARLINK-4147,1 53256U 22086Q   23311.58904362 -.00000437  00000-0 -93419-5 0  9993,2 53256  53.2173  63.8374 0001595  82.8921 277.2252 15.08821053 72273,6917.938,95.439,540.907,538.7,0.0
53256.0,STARLINK-4147,PAYLOAD,2023-11-08 12:23:35,15.08863975,0.0001401,53.2171,59.6731,70.3654,289.7489,0.00068771,0.00010681,0.0,0 STARLINK-4147,1 53256U 22086Q   23312.51638637  .00010681  00000-0  68771-3 0  9997,2 53256  53.2171  59.6731 0001401  70.3654 289.7489 15.08863975 72237,6917.807,95.436,540.641,538.703,0.0
53256.0,STARLINK-4147,PAYLOAD,2023-11-08 13:58:59,15.08859167,0.0001402,53.2171,59.3748,75.0626,285.0521,0.00092514,0.00014474,0.0,0 STARLINK-4147,1 53256U 22086Q   23312.58262898  .00014474  00000-0  92514-3 0  9992,2 53256  53.2171  59.3748 0001402  75.0626 285.0521 15.08859167 72429,6917.822,95.436,540.657,538.717,0.0
53256.0,STARLINK-4147,PAYLOAD,2023-11-09 12:14:23,15.08844575,0.0001407,53.2168,55.2136,97.7116,262.4036,0.00016928,2.408e-05,0.0,0 STARLINK-4147,1 53256U 22086Q   23313.50999307  .00002408  00000-0  16928-3 0  9996,2 53256  53.2168  55.2136 0001407  97.7116 262.4036 15.08844575 72383,6917.866,95.437,540.705,538.758,0.0
53256.0,STARLINK-4147,PAYLOAD,2023-11-09 13:49:46,15.08845025,0.0001238,53.2174,54.9156,95.6424,264.471,9.7287e-05,1.261e-05,0.0,0 STARLINK-4147,1 53256U 22086Q   23313.57623305  .00001261  00000-0  97287-4 0  9999,2 53256  53.2174  54.9156 0001238  95.6424 264.4710 15.08845025 72572,6917.865,95.437,540.586,538.874,0.0
53256.0,STARLINK-4147,PAYLOAD,2023-11-10 13:40:33,15.08851577,0.0001267,53.2171,50.4581,73.0092,287.1039,-3.1619e-05,-7.91e-06,0.0,0 STARLINK-4147,1 53256U 22086Q   23314.56982885 -.00000791  00000-0 -31619-4 0  9996,2 53256  53.2171  50.4581 0001267  73.0092 287.1039 15.08851577 72727,6917.845,95.437,540.586,538.834,0.0
53256.0,STARLINK-4147,PAYLOAD,2023-11-11 11:55:57,15.08836989,0.0001484,53.2183,46.2988,102.4572,257.6586,9.1238e-05,1.164e-05,0.0,0 STARLINK-4147,1 53256U 22086Q   23315.49719401  .00001164  00000-0  91238-4 0  9997,2 53256  53.2183  46.2988 0001484 102.4572 257.6586 15.08836989 72689,6917.89,95.438,540.781,538.728,0.0
53256.0,STARLINK-4147,PAYLOAD,2023-11-11 13:31:20,15.08837011,0.0001589,53.2191,45.9996,102.3754,257.7416,0.00011704,1.575e-05,0.0,0 STARLINK-4147,1 53256U 22086Q   23315.56343314  .00001575  00000-0  11704-3 0  9996,2 53256  53.2191  45.9996 0001589 102.3754 257.7416 15.08837011 72871,6917.89,95.438,540.854,538.655,0.0
53256.0,STARLINK-4147,PAYLOAD,2023-11-12 13:22:07,15.08841335,0.0001551,53.2191,41.5357,91.4083,268.7087,4.1377e-05,3.71e-06,0.0,0 STARLINK-4147,1 53256U 22086Q   23316.55703413  .00000371  00000-0  41377-4 0  9999,2 53256  53.2191  41.5357 0001551  91.4083 268.7087 15.08841335 73024,6917.876,95.437,540.814,538.668,0.0
53256.0,STARLINK-4147,PAYLOAD,2023-11-12 14:57:30,15.08843197,0.0001556,53.2188,41.237,91.0837,269.0333,3.7599e-05,3.1e-06,0.0,0 STARLINK-4147,1 53256U 22086Q   23316.62327288  .00000310  00000-0  37599-4 0  9993,2 53256  53.2188  41.2370 0001556  91.0837 269.0333 15.08843197 72856,6917.871,95.437,540.812,538.659,0.0
53256.0,STARLINK-4147,PAYLOAD,2023-11-13 11:37:30,15.08846485,0.000126,53.2172,37.3733,95.6887,264.4249,0.00017114,2.437e-05,0.0,0 STARLINK-4147,1 53256U 22086Q   23317.48438531  .00002437  00000-0  17114-3 0  9994,2 53256  53.2172  37.3733 0001260  95.6887 264.4249 15.08846485 73168,6917.861,95.437,540.597,538.854,0.0
53256.0,STARLINK-4147,PAYLOAD,2023-11-13 13:12:53,15.08855074,0.0001385,53.2179,37.0759,93.7769,266.3382,0.00015245,2.14e-05,0.0,0 STARLINK-4147,1 53256U 22086Q   23317.55061984  .00002140  00000-0  15245-3 0  9990,2 53256  53.2179  37.0759 0001385  93.7769 266.3382 15.08855074 72999,6917.834,95.437,540.657,538.741,0.0
53256.0,STARLINK-4147,PAYLOAD,2023-11-14 11:28:18,15.08837973,0.0001414,53.2182,32.9124,82.9052,277.21,-1.6483e-05,-5.5e-06,0.0,0 STARLINK-4147,1 53256U 22086Q   23318.47799681 -.00000550  00000-0 -16483-4 0  9995,2 53256  53.2182  32.9124 0001414  82.9052 277.2100 15.08837973 73135,6917.887,95.438,540.73,538.773,0.0
